CCSDS_OMM_VERS = 2.0
CREATION_DATE  = 
ORIGINATOR     = 

OBJECT_NAME    = ENVISAT
OBJECT_ID      = 2002-009A
CENTER_NAME    = EARTH
REF_FRAME      = TEME
TIME_SYSTEM    = UTC
MEAN_ELEMENT_THEORY = SGP/SGP4

EPOCH          = 2025-11-26T12:07:47.982144
MEAN_MOTION    = 14.38990197
ECCENTRICITY   = .0001236
INCLINATION    = 98.3576
RA_OF_ASC_NODE = 281.6597
ARG_OF_PERICENTER = 81.7206
MEAN_ANOMALY   = 29.9425

EPHEMERIS_TYPE = 0
CLASSIFICATION_TYPE = U
NORAD_CAT_ID   = 27386
ELEMENT_SET_NO = 999
REV_AT_EPOCH   = 24433
BSTAR          = .71841E-4
MEAN_MOTION_DOT = .179E-5
MEAN_MOTION_DDOT = 0

CCSDS_OMM_VERS = 2.0
CREATION_DATE  = 
ORIGINATOR     = 

OBJECT_NAME    = IDEFIX & ARIANE 42P R/B
OBJECT_ID      = 2002-021B
CENTER_NAME    = EARTH
REF_FRAME      = TEME
TIME_SYSTEM    = UTC
MEAN_ELEMENT_THEORY = SGP/SGP4

EPOCH          = 2025-11-26T08:39:38.211552
MEAN_MOTION    = 14.30932297
ECCENTRICITY   = .00125999
INCLINATION    = 98.5764
RA_OF_ASC_NODE = 265.2664
ARG_OF_PERICENTER = 127.9650
MEAN_ANOMALY   = 232.2673

EPHEMERIS_TYPE = 0
CLASSIFICATION_TYPE = U
NORAD_CAT_ID   = 27422
ELEMENT_SET_NO = 999
REV_AT_EPOCH   = 22924
BSTAR          = .16339106E-3
MEAN_MOTION_DOT = .386E-5
MEAN_MOTION_DDOT = 0

CCSDS_OMM_VERS = 2.0
CREATION_DATE  = 
ORIGINATOR     = 

OBJECT_NAME    = AQUA
OBJECT_ID      = 2002-022A
CENTER_NAME    = EARTH
REF_FRAME      = TEME
TIME_SYSTEM    = UTC
MEAN_ELEMENT_THEORY = SGP/SGP4

EPOCH          = 2025-11-26T12:59:15.976896
MEAN_MOTION    = 14.61750750
ECCENTRICITY   = .0000623
INCLINATION    = 98.4015
RA_OF_ASC_NODE = 291.1596
ARG_OF_PERICENTER = 90.5502
MEAN_ANOMALY   = 2.0200

EPHEMERIS_TYPE = 0
CLASSIFICATION_TYPE = U
NORAD_CAT_ID   = 27424
ELEMENT_SET_NO = 999
REV_AT_EPOCH   = 25366
BSTAR          = .27892E-3
MEAN_MOTION_DOT = .1342E-4
MEAN_MOTION_DDOT = 0

CCSDS_OMM_VERS = 2.0
CREATION_DATE  = 
ORIGINATOR     = 

OBJECT_NAME    = CZ-4B R/B
OBJECT_ID      = 2002-024C
CENTER_NAME    = EARTH
REF_FRAME      = TEME
TIME_SYSTEM    = UTC
MEAN_ELEMENT_THEORY = SGP/SGP4

EPOCH          = 2025-11-26T10:29:53.081088
MEAN_MOTION    = 14.14522848
ECCENTRICITY   = .0049414
INCLINATION    = 98.9021
RA_OF_ASC_NODE = 19.2641
ARG_OF_PERICENTER = 317.0746
MEAN_ANOMALY   = 53.4224

EPHEMERIS_TYPE = 0
CLASSIFICATION_TYPE = U
NORAD_CAT_ID   = 27432
ELEMENT_SET_NO = 999
REV_AT_EPOCH   = 21464
BSTAR          = .53182E-4
MEAN_MOTION_DOT = .58E-6
MEAN_MOTION_DDOT = 0

CCSDS_OMM_VERS = 2.0
CREATION_DATE  = 
ORIGINATOR     = 

OBJECT_NAME    = MIDORI II (ADEOS-II)
OBJECT_ID      = 2002-056A
CENTER_NAME    = EARTH
REF_FRAME      = TEME
TIME_SYSTEM    = UTC
MEAN_ELEMENT_THEORY = SGP/SGP4

EPOCH          = 2025-11-26T11:21:33.509664
MEAN_MOTION    = 14.29189211
ECCENTRICITY   = .0000691
INCLINATION    = 98.7613
RA_OF_ASC_NODE = 283.3464
ARG_OF_PERICENTER = 17.8344
MEAN_ANOMALY   = 342.2861

EPHEMERIS_TYPE = 0
CLASSIFICATION_TYPE = U
NORAD_CAT_ID   = 27597
ELEMENT_SET_NO = 999
REV_AT_EPOCH   = 19555
BSTAR          = .16083E-3
MEAN_MOTION_DOT = .363E-5
MEAN_MOTION_DDOT = 0

CCSDS_OMM_VERS = 2.0
CREATION_DATE  = 
ORIGINATOR     = 

OBJECT_NAME    = H-2A R/B
OBJECT_ID      = 2002-056E
CENTER_NAME    = EARTH
REF_FRAME      = TEME
TIME_SYSTEM    = UTC
MEAN_ELEMENT_THEORY = SGP/SGP4

EPOCH          = 2025-11-26T11:57:53.919072
MEAN_MOTION    = 14.33657353
ECCENTRICITY   = .0071458
INCLINATION    = 98.3044
RA_OF_ASC_NODE = 289.9044
ARG_OF_PERICENTER = 108.7458
MEAN_ANOMALY   = 1.4720

EPHEMERIS_TYPE = 0
CLASSIFICATION_TYPE = U
NORAD_CAT_ID   = 27601
ELEMENT_SET_NO = 999
REV_AT_EPOCH   = 19932
BSTAR          = .14436E-3
MEAN_MOTION_DOT = .371E-5
MEAN_MOTION_DDOT = 0

CCSDS_OMM_VERS = 2.0
CREATION_DATE  = 
ORIGINATOR     = 

OBJECT_NAME    = CZ-4B R/B
OBJECT_ID      = 2003-049C
CENTER_NAME    = EARTH
REF_FRAME      = TEME
TIME_SYSTEM    = UTC
MEAN_ELEMENT_THEORY = SGP/SGP4

EPOCH          = 2025-11-26T12:03:41.322240
MEAN_MOTION    = 14.54887281
ECCENTRICITY   = .0048074
INCLINATION    = 98.6779
RA_OF_ASC_NODE = 316.4544
ARG_OF_PERICENTER = 185.2780
MEAN_ANOMALY   = 174.7915

EPHEMERIS_TYPE = 0
CLASSIFICATION_TYPE = U
NORAD_CAT_ID   = 28059
ELEMENT_SET_NO = 999
REV_AT_EPOCH   = 17159
BSTAR          = .12403E-3
MEAN_MOTION_DOT = .49E-5
MEAN_MOTION_DDOT = 0

CCSDS_OMM_VERS = 2.0
CREATION_DATE  = 
ORIGINATOR     = 

OBJECT_NAME    = CZ-2C R/B
OBJECT_ID      = 2004-012C
CENTER_NAME    = EARTH
REF_FRAME      = TEME
TIME_SYSTEM    = UTC
MEAN_ELEMENT_THEORY = SGP/SGP4

EPOCH          = 2025-11-26T09:23:39.567552
MEAN_MOTION    = 15.53992077
ECCENTRICITY   = .00176567
INCLINATION    = 97.7446
RA_OF_ASC_NODE = 21.6801
ARG_OF_PERICENTER = 333.6978
MEAN_ANOMALY   = 26.3376

EPHEMERIS_TYPE = 0
CLASSIFICATION_TYPE = U
NORAD_CAT_ID   = 28222
ELEMENT_SET_NO = 999
REV_AT_EPOCH   = 18818
BSTAR          = .57505593E-3
MEAN_MOTION_DOT = .37425E-3
MEAN_MOTION_DDOT = 0

CCSDS_OMM_VERS = 2.0
CREATION_DATE  = 
ORIGINATOR     = 

OBJECT_NAME    = SL-16 R/B
OBJECT_ID      = 2004-021B
CENTER_NAME    = EARTH
REF_FRAME      = TEME
TIME_SYSTEM    = UTC
MEAN_ELEMENT_THEORY = SGP/SGP4

EPOCH          = 2025-11-26T11:58:22.679040
MEAN_MOTION    = 14.14581790
ECCENTRICITY   = .0006055
INCLINATION    = 71.0014
RA_OF_ASC_NODE = 89.0452
ARG_OF_PERICENTER = 218.6528
MEAN_ANOMALY   = 141.4162

EPHEMERIS_TYPE = 0
CLASSIFICATION_TYPE = U
NORAD_CAT_ID   = 28353
ELEMENT_SET_NO = 999
REV_AT_EPOCH   = 10824
BSTAR          = .73795E-4
MEAN_MOTION_DOT = .94E-6
MEAN_MOTION_DDOT = 0

CCSDS_OMM_VERS = 2.0
CREATION_DATE  = 
ORIGINATOR     = 

OBJECT_NAME    = CZ-4B R/B
OBJECT_ID      = 2004-035C
CENTER_NAME    = EARTH
REF_FRAME      = TEME
TIME_SYSTEM    = UTC
MEAN_ELEMENT_THEORY = SGP/SGP4

EPOCH          = 2025-11-26T01:11:30.343200
MEAN_MOTION    = 15.26990200
ECCENTRICITY   = .00329416
INCLINATION    = 97.3626
RA_OF_ASC_NODE = 0.6192
ARG_OF_PERICENTER = 338.9711
MEAN_ANOMALY   = 21.0171

EPHEMERIS_TYPE = 0
CLASSIFICATION_TYPE = U
NORAD_CAT_ID   = 28415
ELEMENT_SET_NO = 999
REV_AT_EPOCH   = 16408
BSTAR          = .39600425E-3
MEAN_MOTION_DOT = .10587E-3
MEAN_MOTION_DDOT = 0

CCSDS_OMM_VERS = 2.0
CREATION_DATE  = 
ORIGINATOR     = 

OBJECT_NAME    = CZ-2C R/B
OBJECT_ID      = 2004-046B
CENTER_NAME    = EARTH
REF_FRAME      = TEME
TIME_SYSTEM    = UTC
MEAN_ELEMENT_THEORY = SGP/SGP4

EPOCH          = 2025-11-26T08:10:13.431936
MEAN_MOTION    = 14.26929863
ECCENTRICITY   = .01407179
INCLINATION    = 98.1974
RA_OF_ASC_NODE = 246.7390
ARG_OF_PERICENTER = 100.4027
MEAN_ANOMALY   = 261.3049

EPHEMERIS_TYPE = 0
CLASSIFICATION_TYPE = U
NORAD_CAT_ID   = 28480
ELEMENT_SET_NO = 999
REV_AT_EPOCH   = 9376
BSTAR          = .10813254E-3
MEAN_MOTION_DOT = .252E-5
MEAN_MOTION_DDOT = 0

CCSDS_OMM_VERS = 2.0
CREATION_DATE  = 
ORIGINATOR     = 

OBJECT_NAME    = ARIANE 5 R/B
OBJECT_ID      = 2004-049H
CENTER_NAME    = EARTH
REF_FRAME      = TEME
TIME_SYSTEM    = UTC
MEAN_ELEMENT_THEORY = SGP/SGP4

EPOCH          = 2025-11-26T09:55:39.944928
MEAN_MOTION    = 14.84957875
ECCENTRICITY   = .008393
INCLINATION    = 98.2519
RA_OF_ASC_NODE = 130.1109
ARG_OF_PERICENTER = 326.5107
MEAN_ANOMALY   = 33.0815

EPHEMERIS_TYPE = 0
CLASSIFICATION_TYPE = U
NORAD_CAT_ID   = 28499
ELEMENT_SET_NO = 999
REV_AT_EPOCH   = 13046
BSTAR          = .12639E-3
MEAN_MOTION_DOT = .1081E-4
MEAN_MOTION_DDOT = 0

