ENVISAT                 
1 27386U 02009A   25330.50541646  .00000179  00000+0  71841-4 0  9992
2 27386  98.3576 281.6597 0001236  81.7206  29.9425 14.38990197244338
IDEFIX & ARIANE 42P R/B 
1 27422U 02021B   25330.36085893  .00000386  00000+0  16339-3 0  9998
2 27422  98.5764 265.2664 0012599 127.9650 232.2673 14.30932297229249
AQUA                    
1 27424U 02022A   25330.54115714  .00001342  00000+0  27892-3 0  9996
2 27424  98.4015 291.1596 0000623  90.5502   2.0200 14.61750750253665
CZ-4B R/B               
1 27432U 02024C   25330.43741992  .00000058  00000+0  53182-4 0  9993
2 27432  98.9021  19.2641 0049414 317.0746  53.4224 14.14522848214648
MIDORI II (ADEOS-II)    
1 27597U 02056A   25330.47330451  .00000363  00000+0  16083-3 0  9995
2 27597  98.7613 283.3464 0000691  17.8344 342.2861 14.29189211195558
H-2A R/B                
1 27601U 02056E   25330.49854073  .00000371  00000+0  14436-3 0  9993
2 27601  98.3044 289.9044 0071458 108.7458   1.4720 14.33657353199328
CZ-4B R/B               
1 28059U 03049C   25330.50256160  .00000490  00000+0  12403-3 0  9993
2 28059  98.6779 316.4544 0048074 185.2780 174.7915 14.54887281171598
CZ-2C R/B               
1 28222U 04012C   25330.39143018  .00037425  00000+0  57506-3 0  9991
2 28222  97.7446  21.6801 0017656 333.6978  26.3376 15.53992077188188
SL-16 R/B               
1 28353U 04021B   25330.49887360  .00000094  00000+0  73795-4 0  9993
2 28353  71.0014  89.0452 0006055 218.6528 141.4162 14.14581790108246
CZ-4B R/B               
1 28415U 04035C   25330.04965675  .00010587  00000+0  39600-3 0  9998
2 28415  97.3626   0.6192 0032941 338.9711  21.0171 15.26990200164089
CZ-2C R/B               
1 28480U 04046B   25330.34043324  .00000252  00000+0  10813-3 0  9996
2 28480  98.1974 246.7390 0140717 100.4027 261.3049 14.26929863 93767
ARIANE 5 R/B            
1 28499U 04049H   25330.41365677  .00001081  00000+0  12639-3 0  9994
2 28499  98.2519 130.1109 0083930 326.5107  33.0815 14.84957875130462
